0 APSTAR 7
1 38107U 12013A   13282.90392181 -.00000117  00000-0  10000-3 0  4220
2 38107 000.0064 048.4764 0002520 154.5687 217.5388 01.00271916  5713
0 APSTAR 7
1 38107U 12013A   13283.19891579  .00000000  00000-0  10000-3 0  4238
2 38107 000.0186 114.3937 0002570 091.4640 321.2101 01.00268025  5719
0 APSTAR 7
1 38107U 12013A   13285.70643918 -.00000125  00000-0  10000-3 0  4249
2 38107 000.0124 136.1097 0002483 061.3675 154.7900 01.00272468  5731
0 APSTAR 7
1 38107U 12013A   13286.48020519 -.00000127  00000-0  10000-3 0  4254
2 38107 000.0058 136.0176 0002521 062.0331 073.5345 01.00272369  5746
0 APSTAR 7
1 38107U 12013A   13287.57169916 -.00000127  00000-0  10000-3 0  4261
2 38107 000.0074 126.6337 0002554 072.0751 106.8914 01.00272336  5758
0 APSTAR 7
1 38107U 12013A   13288.84704867 -.00000126  00000-0  10000-3 0  4272
2 38107 000.0092 123.7101 0002588 076.3695 205.9047 01.00272297  5772
0 APSTAR 7
1 38107U 12013A   13290.00819054  .00000000  00000-0  10000-3 0  4324
2 38107 000.0298 053.8103 0002491 172.6610 238.6529 01.00268483  5786
0 APSTAR 7
1 38107U 12013A   13290.04544876  .00000000  00000-0  10000-3 0  4303
2 38107 000.0302 063.3939 0002303 168.3831 246.7921 01.00268563  5789
0 APSTAR 7
1 38107U 12013A   13290.10514269 -.00000124  00000-0  10000-3 0  4288
2 38107 000.0099 135.9484 0002657 066.6555 297.5343 01.00272234  5780
0 APSTAR 7
1 38107U 12013A   13291.11697828 -.00000122  00000-0  10000-3 0  4292
2 38107 000.0106 140.6925 0002702 062.9247 301.7803 01.00272223  5798
0 APSTAR 7
1 38107U 12013A   13292.84773597 -.00000119  00000-0  10000-3 0  4309
2 38107 000.0023 024.9596 0002561 178.9333 206.2781 01.00271934  5816
0 APSTAR 7
1 38107U 12013A   13292.94556388 -.00000119  00000-0  10000-3 0  4318
2 38107 000.0041 123.4898 0002555 080.4536 241.5424 01.00271937  5810
0 APSTAR 7
1 38107U 12013A   13295.47270351 -.00000115  00000-0  10000-3 0  4329
2 38107 000.0029 167.6961 0002645 038.1353 071.9197 01.00271963  5837
0 APSTAR 7
1 38107U 12013A   13295.70954720 -.00000114  00000-0  10000-3 0  4334
2 38107 000.0056 072.6060 0002698 136.3964 154.2525 01.00272171  5842
0 APSTAR 7
1 38107U 12013A   13295.82274458 -.00000114  00000-0  10000-3 0  4341
2 38107 000.0040 177.6725 0002701 031.7861 194.6591 01.00272172  5840
